STARLINK-37447          
1 68810U 26089J   26117.53899998 -.00964073  31627-3 -16247-2 0  9990
2 68810  97.2861 322.6879 0000571 133.8721 226.2606 16.02793673   719
