{
  "norad_id": 68810,
  "name": "STARLINK-37447",
  "history": [
    {
      "epoch": "2026-04-27T12:56:09.598272Z",
      "apogee_km": 267.06559357643346,
      "perigee_km": 266.3067547699429,
      "latitude_deg": -1.3504459581206492e-05,
      "longitude_deg": -86.87945576502797,
      "height_km": 270.15378488182483,
      "semi_major_axis_km": 6644.823174173188,
      "eccentricity": 5.71e-05,
      "inclination_deg": 97.2861,
      "raan_deg": 322.6879,
      "arg_perigee_deg": 133.8721,
      "mean_anomaly_deg": 226.2606,
      "mean_motion_rev_day": 16.02793673
    }
  ]
}